OBJECT_NAME,OBJECT_ID,EPOCH,MEAN_MOTION,ECCENTRICITY,INCLINATION,RA_OF_ASC_NODE,ARG_OF_PERICENTER,MEAN_ANOMALY,EPHEMERIS_TYPE,CLASSIFICATION_TYPE,NORAD_CAT_ID,ELEMENT_SET_NO,REV_AT_EPOCH,BSTAR,MEAN_MOTION_DOT,MEAN_MOTION_DDOT
COSMOS 2507 (RODNIK-S 13),2015-050A,2026-07-15T23:14:58.498368,12.42927661,.00090217,82.4908,61.7484,291.5384,68.4734,0,U,40920,999,49043,.53501398E-3,.84E-6,0
COSMOS 2508 (RODNIK-S 14),2015-050B,2026-07-15T22:10:35.621760,12.42915119,.00139139,82.4860,60.2703,325.2963,34.7208,0,U,40921,999,49041,.22478644E-3,.41E-6,0
COSMOS 2509 (RODNIK-S 15),2015-050C,2026-07-15T22:40:53.773248,12.42884632,.00145976,82.4868,60.3625,342.5437,17.5139,0,U,40922,999,49045,.17176254E-3,.34E-6,0
LINGQIAO VIDEO A,2015-057B,2026-07-15T22:37:17.073408,14.77426818,.00167637,97.6627,190.3279,170.6894,189.4631,0,U,40959,999,57965,.57815206E-4,.364E-5,0
LINGQIAO VIDEO B,2015-057C,2026-07-15T23:38:14.713728,14.77531545,.00168965,97.6592,191.5242,170.5785,189.5747,0,U,40960,999,57970,-.14767889E-4,-.154E-5,0
JILIN-1,2015-057D,2026-07-15T23:39:06.379200,14.78202028,.00172988,97.6520,194.9244,164.3785,195.7964,0,U,40961,999,57986,.56022357E-4,.358E-5,0
FOX-1A (AO-85),2015-058D,2026-07-15T09:19:38.094240,14.91088896,.01323818,64.7725,191.3328,45.7352,315.4532,0,U,40967,999,11777,.15413123E-3,.1629E-4,0
SINOD-D 1,2015-058E,2026-07-15T14:57:07.416000,14.96090937,.01210673,64.7735,169.8489,41.9967,319.0351,0,U,40968,999,12091,.23458403E-3,.2882E-4,0
ELEKTRO-L 2,2015-074A,2026-07-15T21:51:13.730112,1.00272056,.00010118,6.7637,70.1659,213.0410,323.8484,0,U,41105,999,3879,0,-.131E-5,0
DAMPE,2015-078A,2026-07-15T23:52:47.184384,15.30855541,.00114898,97.4557,202.6050,342.7236,17.3612,0,U,41173,999,58895,.34498126E-4,.952E-5,0
ORBCOMM FM110,2015-081D,2026-07-15T10:57:35.220960,14.58918046,.00036034,47.0004,227.7733,223.2673,136.7931,0,U,41182,999,56175,.65682646E-4,.139E-5,0
ORBCOMM FM112,2015-081F,2026-07-15T20:05:59.967168,14.58939167,.0003664,46.9981,134.7620,330.8197,29.2484,0,U,41184,999,56313,.93622071E-4,.272E-5,0
ORBCOMM FM113,2015-081G,2026-07-15T04:46:12.087264,14.58882058,.00022302,46.9999,138.1739,321.4660,38.6066,0,U,41185,999,56302,.59624912E-4,.111E-5,0
ORBCOMM FM108,2015-081J,2026-07-15T00:34:14.458080,14.58910524,.00026583,47.0055,50.5822,321.5969,38.4727,0,U,41187,999,56414,.92802184E-4,.268E-5,0
ORBCOMM FM117,2015-081K,2026-07-15T22:45:33.339456,14.58898153,.00030133,47.0019,44.8376,332.4251,27.6475,0,U,41188,999,56432,.81798638E-4,.215E-5,0
ORBCOMM FM116,2015-081L,2026-07-15T04:12:09.211968,14.58905811,.00015385,47.0015,138.2828,229.7096,130.3655,0,U,41189,999,56302,.53674085E-4,.83E-6,0
ZIYUAN 3-02 (ZY 3-02),2016-033A,2026-07-15T22:23:38.055840,15.21438132,.00141535,97.3827,272.1547,182.3554,177.7617,0,U,41556,999,56235,.12088794E-3,.2652E-4,0
CARTOSAT-2C,2016-040A,2026-07-15T23:23:59.635392,15.19267519,.00094841,97.4468,256.5542,42.6030,317.5939,0,U,41599,999,55808,.13078879E-3,.2692E-4,0
LAPAN-A3,2016-040E,2026-07-15T23:21:30.023424,15.33280529,.00082426,97.1505,192.1784,272.7920,87.2380,0,U,41603,999,55922,.57486826E-4,.1775E-4,0
GAOFEN-3,2016-049A,2026-07-15T22:41:05.297280,14.42218538,.00017539,98.4010,204.2972,84.7389,275.4000,0,U,41727,999,52279,-.2172067E-4,-.115E-5,0
CAS-2T & KS-1Q,2016-066G,2026-07-15T18:35:13.544448,14.44771111,.03422031,98.3814,272.1835,43.0069,319.7332,0,U,41847,999,50892,.81899296E-4,.524E-5,0
YUNHAI-1 01,2016-068A,2026-07-15T22:36:24.561216,14.32722387,.0003141,98.5843,207.6817,345.9470,14.1626,0,U,41857,999,50594,.57182406E-4,.112E-5,0
RESOURCESAT-2A,2016-074A,2026-07-15T22:15:43.546176,14.21607276,.00023905,98.7525,270.1955,27.1238,333.0064,0,U,41877,999,49838,-.12772016E-3,-.324E-5,0
TANSAT,2016-081A,2026-07-15T23:09:13.476384,14.59971151,.00194834,98.5365,198.0741,217.6253,142.3584,0,U,41898,999,50882,-.3000329E-5,-.65E-6,0
