COSMOS 2507 (RODNIK-S *)
1 40920U 15050A   26196.96873262  .00000084  00000+0  53501-3 0  9991
2 40920  82.4908  61.7484 0009021 291.5384  68.4734 12.42927661490434
COSMOS 2508 (RODNIK-S *)
1 40921U 15050B   26196.92402340  .00000041  00000+0  22479-3 0  9996
2 40921  82.4860  60.2703 0013913 325.2963  34.7208 12.42915119490418
COSMOS 2509 (RODNIK-S *)
1 40922U 15050C   26196.94506682  .00000034  00000+0  17176-3 0  9993
2 40922  82.4868  60.3625 0014597 342.5437  17.5139 12.42884632490459
LINGQIAO VIDEO A        
1 40959U 15057B   26196.94255872  .00000364  00000+0  57815-4 0  9993
2 40959  97.6627 190.3279 0016763 170.6894 189.4631 14.77426818579657
LINGQIAO VIDEO B        
1 40960U 15057C   26196.98489252 -.00000154  00000+0 -14768-4 0  9999
2 40960  97.6592 191.5242 0016896 170.5785 189.5747 14.77531545579707
JILIN-1                 
1 40961U 15057D   26196.98549050  .00000358  00000+0  56022-4 0  9996
2 40961  97.6520 194.9244 0017298 164.3785 195.7964 14.78202028579865
FOX-1A (AO-85)          
1 40967U 15058D   26196.38863535  .00001629  00000+0  15413-3 0  9994
2 40967  64.7725 191.3328 0132381  45.7352 315.4532 14.91088896117770
SINOD-D 1               
1 40968U 15058E   26196.62300250  .00002882  00000+0  23458-3 0  9992
2 40968  64.7735 169.8489 0121067  41.9967 319.0351 14.96090937120912
ELEKTRO-L 2             
1 41105U 15074A   26196.91057558 -.00000131  00000+0  00000+0 0  9996
2 41105   6.7637  70.1659 0001011 213.0410 323.8484  1.00272056 38796
DAMPE                   
1 41173U 15078A   26196.99499056  .00000952  00000+0  34498-4 0  9999
2 41173  97.4557 202.6050 0011489 342.7236  17.3612 15.30855541588952
ORBCOMM FM110           
1 41182U 15081D   26196.45665765  .00000139  00000+0  65683-4 0  9993
2 41182  47.0004 227.7733 0003603 223.2673 136.7931 14.58918046561751
ORBCOMM FM112           
1 41184U 15081F   26196.83749962  .00000272  00000+0  93622-4 0  9991
2 41184  46.9981 134.7620 0003664 330.8197  29.2484 14.58939167563130
ORBCOMM FM113           
1 41185U 15081G   26196.19875101  .00000111  00000+0  59625-4 0  9993
2 41185  46.9999 138.1739 0002230 321.4660  38.6066 14.58882058563022
ORBCOMM FM108           
1 41187U 15081J   26196.02377845  .00000268  00000+0  92802-4 0  9996
2 41187  47.0055  50.5822 0002658 321.5969  38.4727 14.58910524564142
ORBCOMM FM117           
1 41188U 15081K   26196.94830254  .00000215  00000+0  81799-4 0  9991
2 41188  47.0019  44.8376 0003013 332.4251  27.6475 14.58898153564327
ORBCOMM FM116           
1 41189U 15081L   26196.17510662  .00000083  00000+0  53674-4 0  9999
2 41189  47.0015 138.2828 0001538 229.7096 130.3655 14.58905811563027
ZIYUAN 3-02 (ZY 3-02)   
1 41556U 16033A   26196.93307935  .00002652  00000+0  12089-3 0  9994
2 41556  97.3827 272.1547 0014153 182.3554 177.7617 15.21438132562356
CARTOSAT-2C             
1 41599U 16040A   26196.97499578  .00002692  00000+0  13079-3 0  9992
2 41599  97.4468 256.5542 0009484  42.6030 317.5939 15.19267519558086
LAPAN-A3                
1 41603U 16040E   26196.97326416  .00001775  00000+0  57487-4 0  9991
2 41603  97.1505 192.1784 0008242 272.7920  87.2380 15.33280529559229
GAOFEN-3                
1 41727U 16049A   26196.94520020 -.00000115  00000+0 -21721-4 0  9992
2 41727  98.4010 204.2972 0001753  84.7389 275.4000 14.42218538522797
CAS-2T & KS-1Q          
1 41847U 16066G   26196.77446232  .00000524  00000+0  81899-4 0  9991
2 41847  98.3814 272.1835 0342203  43.0069 319.7332 14.44771111508926
YUNHAI-1 01             
1 41857U 16068A   26196.94195094  .00000112  00000+0  57182-4 0  9991
2 41857  98.5843 207.6817 0003141 345.9470  14.1626 14.32722387505948
RESOURCESAT-2A          
1 41877U 16074A   26196.92758734 -.00000324  00000+0 -12772-3 0  9996
2 41877  98.7525 270.1955 0002390  27.1238 333.0064 14.21607276498388
TANSAT                  
1 41898U 16081A   26196.96473931 -.00000065  00000+0 -30003-5 0  9995
2 41898  98.5365 198.0741 0019483 217.6253 142.3584 14.59971151508822
